[{"OBJECT_NAME":"HULIANWANG DIGUI-140","OBJECT_ID":"2026-007D","EPOCH":"2026-03-03T07:34:49.743264","MEAN_MOTION":13.43527489,"ECCENTRICITY":6.137e-5,"INCLINATION":50.0067,"RA_OF_ASC_NODE":106.2628,"ARG_OF_PERICENTER":210.9739,"MEAN_ANOMALY":149.1103,"EPHEMERIS_TYPE":0,"CLASSIFICATION_TYPE":"U","NORAD_CAT_ID":67438,"ELEMENT_SET_NO":999,"REV_AT_EPOCH":669,"BSTAR":0.00019474182,"MEAN_MOTION_DOT":-1.7e-7,"MEAN_MOTION_DDOT":0},{"OBJECT_NAME":"DELTA 1 DEB","OBJECT_ID":"1975-052AV","EPOCH":"2026-03-09T18:13:27.535008","MEAN_MOTION":12.89982222,"ECCENTRICITY":0.02817009,"INCLINATION":99.7503,"RA_OF_ASC_NODE":343.4836,"ARG_OF_PERICENTER":113.2838,"MEAN_ANOMALY":316.9745,"EPHEMERIS_TYPE":0,"CLASSIFICATION_TYPE":"U","NORAD_CAT_ID":21327,"ELEMENT_SET_NO":999,"REV_AT_EPOCH":63834,"BSTAR":0.00051677903,"MEAN_MOTION_DOT":1.26e-6,"MEAN_MOTION_DDOT":0}]
